<?xml version="1.0" encoding="UTF-8"?>
<kml xmlns="http://www.opengis.net/kml/2.2">
  <Document>
    <name>Terreno do Vale</name>
    <Placemark>
      <name>Terreno do Vale</name>
      <description>Terreno de milho e forragem, cerca de 0.8 hectares</description>
      <Polygon>
        <outerBoundaryIs>
          <LinearRing>
            <coordinates>
              -8.6120,40.3550,0
              -8.6095,40.3550,0
              -8.6095,40.3535,0
              -8.6120,40.3535,0
              -8.6120,40.3550,0
            </coordinates>
          </LinearRing>
        </outerBoundaryIs>
      </Polygon>
    </Placemark>
  </Document>
</kml>
