<?xml version="1.0" encoding="UTF-8"?>
<kml xmlns="http://www.opengis.net/kml/2.2" xmlns:gx="http://www.google.com/kml/ext/2.2" xmlns:kml="http://www.opengis.net/kml/2.2" xmlns:atom="http://www.w3.org/2005/Atom">
<Document>
	<name>R-3701.kml</name>
	<description>DISTRITO: 06 - COIMBRA CONCELHO: 02 - CANTANHEDE FREGUESIA: 07 - FEBRES
ARTIGO MATRICIAL Nº: 3701</description>
	<atom:link rel="app" href="https://www.google.com/earth/about/versions/#earth-pro" title="Google Earth Pro 7.3.6.10201"></atom:link>
	<Style id="defaultStyle">
		<LineStyle>
			<color>5f14b428</color>
			<width>4</width>
		</LineStyle>
		<PolyStyle>
			<color>5f14b428</color>
		</PolyStyle>
	</Style>
	<StyleMap id="defaultStyle0">
		<Pair>
			<key>normal</key>
			<styleUrl>#defaultStyle1</styleUrl>
		</Pair>
		<Pair>
			<key>highlight</key>
			<styleUrl>#defaultStyle</styleUrl>
		</Pair>
	</StyleMap>
	<Style id="defaultStyle1">
		<LineStyle>
			<color>5f14b428</color>
			<width>4</width>
		</LineStyle>
		<PolyStyle>
			<color>5f14b428</color>
		</PolyStyle>
	</Style>
	<Placemark>
		<name>Quinta Baixa</name>
		<description>DISTRITO: 06 - COIMBRA CONCELHO: 02 - CANTANHEDE FREGUESIA: 07 - FEBRES
ARTIGO MATRICIAL Nº: 3701</description>
		<styleUrl>#defaultStyle0</styleUrl>
		<Polygon>
			<outerBoundaryIs>
				<LinearRing>
					<coordinates>
						-8.648962276413268,40.40607494784314,0 -8.649226708475744,40.40621144798984,0 -8.648614705060282,40.40636773668563,0 -8.648569993682518,40.406306954137,0 -8.648962276413268,40.40607494784314,0 
					</coordinates>
				</LinearRing>
			</outerBoundaryIs>
		</Polygon>
	</Placemark>
</Document>
</kml>
