<?xml version="1.0" encoding="UTF-8"?>
<kml xmlns="http://www.opengis.net/kml/2.2" xmlns:gx="http://www.google.com/kml/ext/2.2" xmlns:kml="http://www.opengis.net/kml/2.2" xmlns:atom="http://www.w3.org/2005/Atom">
<Document>
	<name>R-5224.kml</name>
	<Style id="defaultStyle">
		<LineStyle>
			<color>5f14b428</color>
			<width>4</width>
		</LineStyle>
		<PolyStyle>
			<color>5f14b428</color>
		</PolyStyle>
	</Style>
	<StyleMap id="defaultStyle0">
		<Pair>
			<key>normal</key>
			<styleUrl>#defaultStyle</styleUrl>
		</Pair>
		<Pair>
			<key>highlight</key>
			<styleUrl>#defaultStyle1</styleUrl>
		</Pair>
	</StyleMap>
	<Style id="defaultStyle1">
		<LineStyle>
			<color>5f14b428</color>
			<width>4</width>
		</LineStyle>
		<PolyStyle>
			<color>5f14b428</color>
		</PolyStyle>
	</Style>
	<Placemark>
		<name>Vinha velha</name>
		<description>DISTRITO: 06 - COIMBRA CONCELHO: 02 - CANTANHEDE FREGUESIA: 07 - FEBRES
ARTIGO MATRICIAL Nº: 5224</description>
		<styleUrl>#defaultStyle0</styleUrl>
		<Polygon>
			<outerBoundaryIs>
				<LinearRing>
					<coordinates>
						-8.645206384240957,40.4127277496662,0 -8.644041575426035,40.41317248729952,0 -8.644073931321888,40.4132460817798,0 -8.64575373859361,40.41257954696808,0 -8.645690035451699,40.41254651950363,0 -8.645206384240957,40.4127277496662,0 
					</coordinates>
				</LinearRing>
			</outerBoundaryIs>
		</Polygon>
		<atom:link rel="app" href="https://www.google.com/earth/about/versions/#earth-pro" title="Google Earth Pro 7.3.6.10201"></atom:link>
	</Placemark>
</Document>
</kml>
