<?xml version="1.0" encoding="UTF-8"?>
<kml xmlns="http://www.opengis.net/kml/2.2" xmlns:gx="http://www.google.com/kml/ext/2.2" xmlns:kml="http://www.opengis.net/kml/2.2" xmlns:atom="http://www.w3.org/2005/Atom">
<Document>
	<name>R-8204.kml</name>
	<Style id="defaultStyle">
		<LineStyle>
			<color>5f14b428</color>
			<width>4</width>
		</LineStyle>
		<PolyStyle>
			<color>5f14b428</color>
		</PolyStyle>
	</Style>
	<Style id="defaultStyle0">
		<LineStyle>
			<color>5f14b428</color>
			<width>4</width>
		</LineStyle>
		<PolyStyle>
			<color>5f14b428</color>
		</PolyStyle>
	</Style>
	<StyleMap id="defaultStyle1">
		<Pair>
			<key>normal</key>
			<styleUrl>#defaultStyle0</styleUrl>
		</Pair>
		<Pair>
			<key>highlight</key>
			<styleUrl>#defaultStyle</styleUrl>
		</Pair>
	</StyleMap>
	<Placemark>
		<name>Pinhal da Ursa</name>
		<description>DISTRITO: 06 - COIMBRA CONCELHO: 02 - CANTANHEDE FREGUESIA: 20 - UNIÃO DAS FREGUESIAS DE
CANTANHEDE E POCARIÇA
ARTIGO MATRICIAL Nº: 8204</description>
		<styleUrl>#defaultStyle1</styleUrl>
		<Polygon>
			<outerBoundaryIs>
				<LinearRing>
					<coordinates>
						-8.650346224706928,40.36597496581389,0 -8.651208382644194,40.36592497577963,0 -8.651260578091843,40.36543480776252,0 -8.651238062482827,40.3650736305886,0 -8.65110036940507,40.36490257145803,0 -8.650957318304343,40.36472608165704,0 -8.650626544783028,40.36441918368764,0 -8.650484553449198,40.36453200734183,0 -8.650347461087845,40.36462941685679,0 -8.649949161147555,40.36489918928289,0 -8.649580547244733,40.36519734473593,0 -8.649636388726492,40.36528979511427,0 -8.649933986479022,40.36586292726427,0 -8.650357940477951,40.36597445980053,0 -8.64994635445162,40.36585427885584,0 -8.650346224706928,40.36597496581389,0 
					</coordinates>
				</LinearRing>
			</outerBoundaryIs>
		</Polygon>
		<atom:link rel="app" href="https://www.google.com/earth/about/versions/#earth-pro" title="Google Earth Pro 7.3.6.10201"></atom:link>
	</Placemark>
</Document>
</kml>
