<?xml version="1.0" encoding="UTF-8"?>
<kml xmlns="http://www.opengis.net/kml/2.2" xmlns:gx="http://www.google.com/kml/ext/2.2" xmlns:kml="http://www.opengis.net/kml/2.2" xmlns:atom="http://www.w3.org/2005/Atom">
<Document>
	<name>R-9191.kml</name>
	<Style id="defaultStyle">
		<LineStyle>
			<color>5f14b428</color>
			<width>4</width>
		</LineStyle>
		<PolyStyle>
			<color>5f14b428</color>
		</PolyStyle>
	</Style>
	<StyleMap id="defaultStyle0">
		<Pair>
			<key>normal</key>
			<styleUrl>#defaultStyle1</styleUrl>
		</Pair>
		<Pair>
			<key>highlight</key>
			<styleUrl>#defaultStyle</styleUrl>
		</Pair>
	</StyleMap>
	<Style id="defaultStyle1">
		<LineStyle>
			<color>5f14b428</color>
			<width>4</width>
		</LineStyle>
		<PolyStyle>
			<color>5f14b428</color>
		</PolyStyle>
	</Style>
	<Placemark>
		<name>Carvalheiros Poente 9191</name>
		<description>DISTRITO: 06 - COIMBRA CONCELHO: 02 - CANTANHEDE FREGUESIA: 07 - FEBRES
ARTIGO MATRICIAL Nº: 9191</description>
		<styleUrl>#defaultStyle0</styleUrl>
		<Polygon>
			<outerBoundaryIs>
				<LinearRing>
					<coordinates>
						-8.648867440386638,40.4004260912897,0 -8.649430641672403,40.40136930986004,0 -8.649129541598571,40.40152357682795,0 -8.648398720688572,40.4005821794556,0 -8.648867440386638,40.4004260912897,0 
					</coordinates>
				</LinearRing>
			</outerBoundaryIs>
		</Polygon>
		<atom:link rel="app" href="https://www.google.com/earth/about/versions/#earth-pro" title="Google Earth Pro 7.3.6.10201"></atom:link>
	</Placemark>
</Document>
</kml>
