<?xml version="1.0" encoding="UTF-8"?>
<kml xmlns="http://www.opengis.net/kml/2.2" xmlns:gx="http://www.google.com/kml/ext/2.2" xmlns:kml="http://www.opengis.net/kml/2.2" xmlns:atom="http://www.w3.org/2005/Atom">
<Document>
	<name>R-5207.kml</name>
	<StyleMap id="defaultStyle">
		<Pair>
			<key>normal</key>
			<styleUrl>#defaultStyle1</styleUrl>
		</Pair>
		<Pair>
			<key>highlight</key>
			<styleUrl>#defaultStyle0</styleUrl>
		</Pair>
	</StyleMap>
	<Style id="defaultStyle0">
		<LineStyle>
			<color>5f14b428</color>
			<width>4</width>
		</LineStyle>
		<PolyStyle>
			<color>5f14b428</color>
		</PolyStyle>
	</Style>
	<Style id="defaultStyle1">
		<LineStyle>
			<color>5f14b428</color>
			<width>4</width>
		</LineStyle>
		<PolyStyle>
			<color>5f14b428</color>
		</PolyStyle>
	</Style>
	<Placemark>
		<name>Pinheiros bravos novos</name>
		<description>DISTRITO: 06 - COIMBRA CONCELHO: 02 - CANTANHEDE FREGUESIA: 07 - FEBRES
ARTIGO MATRICIAL Nº: 5207</description>
		<styleUrl>#defaultStyle</styleUrl>
		<Polygon>
			<outerBoundaryIs>
				<LinearRing>
					<coordinates>
						-8.647002194088845,40.41305056440151,0 -8.646847039132341,40.41296306834361,0 -8.64641861295136,40.41317603978464,0 -8.645929279878718,40.41334725792298,0 -8.646067097381199,40.41349137819797,0 -8.647002194088845,40.41305056440151,0 
					</coordinates>
				</LinearRing>
			</outerBoundaryIs>
		</Polygon>
		<atom:link rel="app" href="https://www.google.com/earth/about/versions/#earth-pro" title="Google Earth Pro 7.3.6.10201"></atom:link>
	</Placemark>
</Document>
</kml>
