<?xml version="1.0" encoding="UTF-8"?>
<kml xmlns="http://www.opengis.net/kml/2.2" xmlns:gx="http://www.google.com/kml/ext/2.2" xmlns:kml="http://www.opengis.net/kml/2.2" xmlns:atom="http://www.w3.org/2005/Atom">
<Document>
	<name>R- 5235.kml</name>
	<Style id="defaultStyle">
		<LineStyle>
			<color>5f14b428</color>
			<width>4</width>
		</LineStyle>
		<PolyStyle>
			<color>5f14b428</color>
		</PolyStyle>
	</Style>
	<Style id="defaultStyle0">
		<LineStyle>
			<color>5f14b428</color>
			<width>4</width>
		</LineStyle>
		<PolyStyle>
			<color>5f14b428</color>
		</PolyStyle>
	</Style>
	<StyleMap id="defaultStyle1">
		<Pair>
			<key>normal</key>
			<styleUrl>#defaultStyle</styleUrl>
		</Pair>
		<Pair>
			<key>highlight</key>
			<styleUrl>#defaultStyle0</styleUrl>
		</Pair>
	</StyleMap>
	<Placemark>
		<name>Vinha Avo</name>
		<description>DISTRITO: 06 - COIMBRA CONCELHO: 02 - CANTANHEDE FREGUESIA: 07 - FEBRES
ARTIGO MATRICIAL Nº: 5235</description>
		<styleUrl>#defaultStyle1</styleUrl>
		<Polygon>
			<outerBoundaryIs>
				<LinearRing>
					<coordinates>
						-8.643728656701134,40.41276464406072,0 -8.643127960119328,40.41313630463924,0 -8.64318605736891,40.41320986382306,0 -8.643857943940837,40.41281390117803,0 -8.644329773944296,40.41245273709252,0 -8.644265470290375,40.41236534971569,0 -8.643728656701134,40.41276464406072,0 
					</coordinates>
				</LinearRing>
			</outerBoundaryIs>
		</Polygon>
		<atom:link rel="app" href="https://www.google.com/earth/about/versions/#earth-pro" title="Google Earth Pro 7.3.6.10201"></atom:link>
	</Placemark>
</Document>
</kml>
