<?xml version="1.0" encoding="UTF-8"?>
<kml xmlns="http://www.opengis.net/kml/2.2" xmlns:gx="http://www.google.com/kml/ext/2.2" xmlns:kml="http://www.opengis.net/kml/2.2" xmlns:atom="http://www.w3.org/2005/Atom">
<Document>
	<name>R-8223.kml</name>
	<StyleMap id="defaultStyle">
		<Pair>
			<key>normal</key>
			<styleUrl>#defaultStyle1</styleUrl>
		</Pair>
		<Pair>
			<key>highlight</key>
			<styleUrl>#defaultStyle0</styleUrl>
		</Pair>
	</StyleMap>
	<Style id="defaultStyle0">
		<LineStyle>
			<color>5f14b428</color>
			<width>4</width>
		</LineStyle>
		<PolyStyle>
			<color>5f14b428</color>
		</PolyStyle>
	</Style>
	<Style id="defaultStyle1">
		<LineStyle>
			<color>5f14b428</color>
			<width>4</width>
		</LineStyle>
		<PolyStyle>
			<color>5f14b428</color>
		</PolyStyle>
	</Style>
	<Placemark>
		<name>8223 Lombos</name>
		<description>DISTRITO: 06 - COIMBRA CONCELHO: 02 - CANTANHEDE FREGUESIA: 20 - UNIÃO DAS FREGUESIAS DE
CANTANHEDE E POCARIÇA
ARTIGO MATRICIAL Nº: 8223</description>
		<styleUrl>#defaultStyle</styleUrl>
		<Polygon>
			<outerBoundaryIs>
				<LinearRing>
					<coordinates>
						-8.654342624966418,40.36052795750123,0 -8.655674159534595,40.36069648343966,0 -8.655427844192062,40.35994617204698,0 -8.655659422146753,40.35866056066527,0 -8.655497675435889,40.35851905118071,0 -8.655318825941503,40.35899869734107,0 -8.654851214377773,40.35985925316828,0 -8.654342624966418,40.36052795750123,0 
					</coordinates>
				</LinearRing>
			</outerBoundaryIs>
		</Polygon>
		<atom:link rel="app" href="https://www.google.com/earth/about/versions/#earth-pro" title="Google Earth Pro 7.3.6.10201"></atom:link>
	</Placemark>
</Document>
</kml>
